[{"OBJECT_NAME":"FLOCK 4G-5","OBJECT_ID":"2025-009BG","EPOCH":"2026-03-09T10:57:11.608704","MEAN_MOTION":15.28679529,"ECCENTRICITY":0.00020946,"INCLINATION":97.4058,"RA_OF_ASC_NODE":151.2478,"ARG_OF_PERICENTER":314.5072,"MEAN_ANOMALY":45.5996,"EPHEMERIS_TYPE":0,"CLASSIFICATION_TYPE":"U","NORAD_CAT_ID":62663,"ELEMENT_SET_NO":999,"REV_AT_EPOCH":6369,"BSTAR":0.00040688068,"MEAN_MOTION_DOT":0.00011278,"MEAN_MOTION_DDOT":0},{"OBJECT_NAME":"STARLINK-36503","OBJECT_ID":"2026-005H","EPOCH":"2026-03-09T11:12:36.135360","MEAN_MOTION":15.27585072,"ECCENTRICITY":7.107e-5,"INCLINATION":42.9979,"RA_OF_ASC_NODE":239.131,"ARG_OF_PERICENTER":206.9075,"MEAN_ANOMALY":153.174,"EPHEMERIS_TYPE":0,"CLASSIFICATION_TYPE":"U","NORAD_CAT_ID":67411,"ELEMENT_SET_NO":999,"REV_AT_EPOCH":866,"BSTAR":0.0010101174,"MEAN_MOTION_DOT":0.00027643,"MEAN_MOTION_DDOT":0}]
